<message
    xmlns:xsi="http://www.w3.org/2001/XMLSchema-instance"
    xsi:noNamespaceSchemaLocation="http://sanaregistry.org/r/ndmxml/ndmxml-1.0-master.xsd"
>
    <cdm id="CCSDS_CDM_VERS" version="1.0">
        <header>
            <COMMENT>Screened with = inertial state vector.</COMMENT>
                    <OBJECT>OBJECT2</OBJECT>
                    <OBJECT_DESIGNATOR>35929</OBJECT_DESIGNATOR>
                    <CATALOG_NAME>SATCAT</CATALOG_NAME>
                    <OBJECT_NAME>IRIDIUM 33 DEB</OBJECT_NAME>
                    <INTERNATIONAL_DESIGNATOR
                    >1997-051UN</INTERNATIONAL_DESIGNATOR>
                    <OBJECT_TYPE>DEBRIS</OBJECT_TYPE>
                    <OPERATOR_CONTACT_POSITION>
                    https://www.space-track.org/expandedspacedata/query/class/organization/object/~~35929/orderby/ORG_NAME,INFO_ID/format/html/emptyresult/show/
                    </OPERATOR_CONTACT_POSITION>
                    <OPERATOR_ORGANIZATION>NONE</OPERATOR_ORGANIZATION>
                    <OPERATOR_PHONE>
                    https://www.space-track.org/expandedspacedata/query/class/organization/object/~~35929/orderby/ORG_NAME,INFO_ID/format/html/emptyresult/show/
                    </OPERATOR_PHONE>
                    <OPERATOR_EMAIL>
                    https://www.space-track.org/expandedspacedata/query/class/organization/object/~~35929/orderby/ORG_NAME,INFO_ID/format/html/emptyresult/show/
                    </OPERATOR_EMAIL>
                    <EPHEMERIS_NAME>NONE</EPHEMERIS_NAME>
                    <COVARIANCE_METHOD>CALCULATED</COVARIANCE_METHOD>
                    <MANEUVERABLE>N/A</MANEUVERABLE>
                    <REF_FRAME>ITRF</REF_FRAME>
                    <GRAVITY_MODEL>EGM-96: 36D 36O</GRAVITY_MODEL>
                    <ATMOSPHERIC_MODEL>JBH09</ATMOSPHERIC_MODEL>
                    <N_BODY_PERTURBATIONS>MOON,SUN</N_BODY_PERTURBATIONS>
                    <SOLAR_RAD_PRESSURE>YES</SOLAR_RAD_PRESSURE>
                    <EARTH_TIDES>YES</EARTH_TIDES>
                    <INTRACK_THRUST>NO</INTRACK_THRUST>
                </metadata>
                <data>
                    <odParameters>
                        <COMMENT>Covariance Scale Factor = 1.000000</COMMENT>
                        <COMMENT
                        >Exclusion Volume Radius = 1.000000 [m]</COMMENT>
                        <TIME_LASTOB_START
                        >2019-09-01T16:50:37</TIME_LASTOB_START>
                        <TIME_LASTOB_END>2020-02-26T16:50:37</TIME_LASTOB_END>
                        <RECOMMENDED_OD_SPAN
                            units="d"
                        >15.96</RECOMMENDED_OD_SPAN>
                        <ACTUAL_OD_SPAN units="d">15.96</ACTUAL_OD_SPAN>
                        <OBS_AVAILABLE>63</OBS_AVAILABLE>
                        <OBS_USED>63</OBS_USED>
                        <RESIDUALS_ACCEPTED units="%">100</RESIDUALS_ACCEPTED>
                        <WEIGHTED_RMS>2.153</WEIGHTED_RMS>
                    </odParameters>
                    <additionalParameters>
                        <COMMENT>Apogee Altitude = 756 [km]</COMMENT>
                        <COMMENT>Perigee Altitude = 700 [km]</COMMENT>
                        <COMMENT>Inclination = 86.4 [deg]</COMMENT>
                        <AREA_PC units="m**2">0.014</AREA_PC>
                        <CD_AREA_OVER_MASS
                            units="m**2/kg"
                        >0.192312125547</CD_AREA_OVER_MASS>
                        <CR_AREA_OVER_MASS
                            units="m**2/kg"
                        >0.100848741684</CR_AREA_OVER_MASS>
                        <THRUST_ACCELERATION
                            units="m/s**2"
                        >0</THRUST_ACCELERATION>
                        <SEDR units="W/kg">0.000237378</SEDR>
                    </additionalParameters>
                    <stateVector>
                        <X units="km">-1484.285818</X>
                        <Y units="km">-5292.263622</Y>
                        <Z units="km">-4494.23968</Z>
                        <X_DOT units="km/s">-1.063675697</X_DOT>
                        <Y_DOT units="km/s">-4.585064279</Y_DOT>
                        <Z_DOT units="km/s">5.79176252</Z_DOT>
                    </stateVector>
                    <covarianceMatrix>
                        <COMMENT>
                        DCP Density Forecast Uncertainty = 1.200000000000000E-01
                        </COMMENT>
                        <COMMENT>
                        DCP Sensitivity Vector RTN Pos = -6.325326156245897E+01 1.019358089630228E+04 1.350303827522672E+00 [m]
                        </COMMENT>
                        <COMMENT>
                        DCP Sensitivity Vector RTN Vel = -1.076462035157589E+01 2.955426676680361E-02 1.556450454680763E-03 [m/sec]
                        </COMMENT>